0 COSMOS 1249 COOLANT
1 26503U 81021E   13281.29614241  .00000048  00000-0  10994-3 0  6076
2 26503 064.9572 222.4283 0057024 314.1787 045.4600 13.90487402688530
0 COSMOS 1249 COOLANT
1 26503U 81021E   13283.45379876  .00000050  00000-0  11151-3 0  6088
2 26503 064.9567 216.7700 0056719 313.4255 046.2146 13.90488066688830
0 COSMOS 1249 COOLANT
1 26503U 81021E   13286.25874930  .00000054  00000-0  11431-3 0  6096
2 26503 064.9564 209.4158 0057159 312.8846 046.7423 13.90489013689221
0 COSMOS 1249 COOLANT
1 26503U 81021E   13289.13562008  .00000060  00000-0  11963-3 0  6105
2 26503 064.9554 201.8697 0057524 312.2432 047.3823 13.90490144689627
0 COSMOS 1249 COOLANT
1 26503U 81021E   13291.36519204  .00000064  00000-0  12286-3 0  6117
2 26503 064.9551 196.0235 0057521 311.6912 047.9271 13.90491004689933
0 COSMOS 1249 COOLANT
1 26503U 81021E   13294.09821219  .00000073  00000-0  12977-3 0  6120
2 26503 064.9563 188.8576 0057769 310.4244 049.1823 13.90492327690312
